KUIPER-00186            
1 67140U 25301H   26015.81208486  .00017756  00000+0  50789-3 0  9997
2 67140  51.8699 320.8493 0008067 196.8604 163.2115 15.36011364  5602
KUIPER-00187            
1 67141U 25301J   26015.83337963 -.00913585  00000+0 -33244-1 0  9995
2 67141  51.8743 320.7396 0005688 197.7303 271.4759 15.30530880  5391
KUIPER-00188            
1 67142U 25301K   26015.81448859  .00019425  00000+0  55839-3 0  9995
2 67142  51.8697 320.8673 0007094 201.5435 158.5253 15.35797096  5609
KUIPER-00191            
1 67143U 25301L   26015.48530463  .00019136  00000+0  54659-3 0  9990
2 67143  51.8681 322.4064 0006573 193.9998 166.0807 15.36011705  5587
KUIPER-00196            
1 67144U 25301M   26015.85972431  .00037093  00000+0  10244-2 0  9990
2 67144  51.8726 320.4277 0005256 142.7363 217.3989 15.36694994  5619
KUIPER-00204            
1 67145U 25301N   26015.83337963  .00031923  00000+0  13039-2 0  9995
2 67145  51.8833 321.1195 0004748 129.2934 138.9159 15.24100486  5718
KUIPER-00210            
1 67146U 25301P   26015.43985355  .00020581  00000+0  60721-3 0  9995
2 67146  51.8611 322.8308 0010390 219.9156 140.1066 15.34914372  5710
KUIPER-00221            
1 67147U 25301Q   26015.83337963 -.00034498  00000+0 -10838-2 0  9993
2 67147  51.8732 320.7139 0004932 169.4383 330.6704 15.32271432  5097
